{
  "type": "FeatureCollection",
  "features": [
    {
      "type": "Feature",
      "properties": {
        "name": "Kentucky State Boundary",
        "state": "Kentucky",
        "fips": "21"
      },
      "geometry": {
        "type": "Polygon",
        "coordinates": [
          [
            [
              -89.57,
              36.5
            ],
            [
              -88.05,
              36.5
            ],
            [
              -84.15,
              36.6
            ],
            [
              -83.0,
              36.6
            ],
            [
              -82.6,
              37.2
            ],
            [
              -81.96,
              37.55
            ],
            [
              -82.55,
              38.45
            ],
            [
              -82.9,
              38.65
            ],
            [
              -84.05,
              38.65
            ],
            [
              -84.75,
              39.14
            ],
            [
              -85.4,
              38.6
            ],
            [
              -85.8,
              38.3
            ],
            [
              -86.8,
              37.95
            ],
            [
              -88.02,
              37.85
            ],
            [
              -88.75,
              37.15
            ],
            [
              -89.57,
              36.98
            ],
            [
              -89.57,
              36.5
            ]
          ]
        ]
      }
    }
  ]
}